$$SOE
2460154.500000000, A.D. 2023-Jul-29 00:00:00.0000, -2.904300801571483E+08, 2.770551169026840E+08, 2.048326876036099E+07,
2460161.500000000, A.D. 2023-Aug-05 00:00:00.0000, -2.964213515771095E+08, 2.682467997930208E+08, 1.880516340097295E+07,
2460168.500000000, A.D. 2023-Aug-12 00:00:00.0000, -3.021881848912948E+08, 2.592353500928840E+08, 1.711282128701131E+07,
2460175.500000000, A.D. 2023-Aug-19 00:00:00.0000, -3.077232659632739E+08, 2.500250600765400E+08, 1.540735719887635E+07,
2460182.500000000, A.D. 2023-Aug-26 00:00:00.0000, -3.130192647098066E+08, 2.406204844889363E+08, 1.368992496329810E+07,
2460189.500000000, A.D. 2023-Sep-02 00:00:00.0000, -3.180688426582560E+08, 2.310264498640626E+08, 1.196171829085435E+07,
2460196.500000000, A.D. 2023-Sep-09 00:00:00.0000, -3.228646612461947E+08, 2.212480638130201E+08, 1.022397156299752E+07,
2460203.500000000, A.D. 2023-Sep-16 00:00:00.0000, -3.273993907378202E+08, 2.112907241868654E+08, 8.477960540236965E+06,
2460210.500000000, A.D. 2023-Sep-23 00:00:00.0000, -3.316657193838117E+08, 2.011601283587736E+08, 6.725002967845082E+06,
2460217.500000000, A.D. 2023-Sep-30 00:00:00.0000, -3.356563632075101E+08, 1.908622837680411E+08, 4.966459197927684E+06,
2460224.500000000, A.D. 2023-Oct-07 00:00:00.0000, -3.393640788162412E+08, 1.804035191299365E+08, 3.203732988846377E+06,
2460231.500000000, A.D. 2023-Oct-14 00:00:00.0000, -3.427816782415392E+08, 1.697904929417925E+08, 1.438272104393572E+06,
2460238.500000000, A.D. 2023-Oct-21 00:00:00.0000, -3.459020426153964E+08, 1.590302008227220E+08, -3.284314642444402E+05,
2460245.500000000, A.D. 2023-Oct-28 00:00:00.0000, -3.487181361423186E+08, 1.481299838700235E+08, -2.094841350876622E+06,
2460252.500000000, A.D. 2023-Nov-04 00:00:00.0000, -3.512230216557356E+08, 1.370975371808617E+08, -3.859376703201443E+06,
2460259.500000000, A.D. 2023-Nov-11 00:00:00.0000, -3.534098776143386E+08, 1.259409178536760E+08, -5.620412188219652E+06,
2460266.500000000, A.D. 2023-Nov-18 00:00:00.0000, -3.552720163450780E+08, 1.146685523104700E+08, -7.376278154869132E+06,
2460273.500000000, A.D. 2023-Nov-25 00:00:00.0000, -3.568029034808354E+08, 1.032892428593242E+08, -9.125260974839579E+06,
2460280.500000000, A.D. 2023-Dec-02 00:00:00.0000, -3.579961785794225E+08, 9.181217337527017E+07, -1.086560358207104E+07,
2460287.500000000, A.D. 2023-Dec-09 00:00:00.0000, -3.588456768530251E+08, 8.024691392327720E+07, -1.259550624068892E+07,
2460294.500000000, A.D. 2023-Dec-16 00:00:00.0000, -3.593454517168683E+08, 6.860342421238850E+07, -1.431312758501574E+07,
2460301.500000000, A.D. 2023-Dec-23 00:00:00.0000, -3.594897977909977E+08, 5.689205643822148E+07, -1.601658592565539E+07,
2460308.500000000, A.D. 2023-Dec-30 00:00:00.0000, -3.592732756623522E+08, 4.512355842403796E+07, -1.770396063061355E+07,
2460315.500000000, A.D. 2024-Jan-06 00:00:00.0000, -3.586907401350912E+08, 3.330907455100020E+07, -1.937329362923897E+07,
2460322.500000000, A.D. 2024-Jan-13 00:00:00.0000, -3.577373687419289E+08, 2.146014251709724E+07, -2.102259149524007E+07,
2460329.500000000, A.D. 2024-Jan-20 00:00:00.0000, -3.564086892213410E+08, 9.588688853528608E+06, -2.264982798585337E+07,
2460336.500000000, A.D. 2024-Jan-27 00:00:00.0000, -3.547006079014076E+08, -2.292976308321841E+06, -2.425294681454124E+07,
2460343.500000000, A.D. 2024-Feb-03 00:00:00.0000, -3.526094393167719E+08, -1.417216632507147E+07, -2.582986471245727E+07,
2460350.500000000, A.D. 2024-Feb-10 00:00:00.0000, -3.501319366577501E+08, -2.603582742708091E+07, -2.737847484321937E+07,
2460357.500000000, A.D. 2024-Feb-17 00:00:00.0000, -3.472653227627626E+08, -3.787055054112493E+07, -2.889665059525633E+07,
2460364.500000000, A.D. 2024-Feb-24 00:00:00.0000, -3.440073214434391E+08, -4.966258567827226E+07, -3.038224976297827E+07,
2460371.500000000, A.D. 2024-Mar-02 00:00:00.0000, -3.403561889158521E+08, -6.139785905469954E+07, -3.183311912837293E+07,
2460378.500000000, A.D. 2024-Mar-09 00:00:00.0000, -3.363107449798694E+08, -7.306199313128543E+07, -3.324709946397369E+07,
2460385.500000000, A.D. 2024-Mar-16 00:00:00.0000, -3.318704033099025E+08, -8.464032948127626E+07, -3.462203097669169E+07,
2460392.500000000, A.D. 2024-Mar-23 00:00:00.0000, -3.270352006965682E+08, -9.611795346316174E+07, -3.595575908732569E+07,
2460399.500000000, A.D. 2024-Mar-30 00:00:00.0000, -3.218058271945717E+08, -1.074797207885502E+08, -3.724614033246897E+07,
2460406.500000000, A.D. 2024-Apr-06 00:00:00.0000, -3.161836566178939E+08, -1.187102893896023E+08, -3.849104867291787E+07,
2460413.500000000, A.D. 2024-Apr-13 00:00:00.0000, -3.101707735130551E+08, -1.297941557537512E+08, -3.968838244554985E+07,
2460420.500000000, A.D. 2024-Apr-20 00:00:00.0000, -3.037699972252771E+08, -1.407156930158382E+08, -4.083607162414195E+07,
2460427.500000000, A.D. 2024-Apr-27 00:00:00.0000, -2.969849042216869E+08, -1.514591913009175E+08, -4.193208525987396E+07,
2460434.500000000, A.D. 2024-May-04 00:00:00.0000, -2.898198482273389E+08, -1.620089009187090E+08, -4.297443912617571E+07,
2460441.500000000, A.D. 2024-May-11 00:00:00.0000, -2.822799775855420E+08, -1.723490783684833E+08, -4.396120355325826E+07,
2460448.500000000, A.D. 2024-May-18 00:00:00.0000, -2.743712494192430E+08, -1.824640349425699E+08, -4.489051140809825E+07,
2460455.500000000, A.D. 2024-May-25 00:00:00.0000, -2.661004402386249E+08, -1.923381876966434E+08, -4.576056616678882E+07,
2460462.500000000, A.D. 2024-Jun-01 00:00:00.0000, -2.574751526214756E+08, -2.019561125574704E+08, -4.656965002770084E+07,
2460469.500000000, A.D. 2024-Jun-08 00:00:00.0000, -2.485038174297554E+08, -2.113025992580711E+08, -4.731613202282098E+07,
2460476.500000000, A.D. 2024-Jun-15 00:00:00.0000, -2.391956909029684E+08, -2.203627071780143E+08, -4.799847604747345E+07,
2460483.500000000, A.D. 2024-Jun-22 00:00:00.0000, -2.295608474102677E+08, -2.291218204952071E+08, -4.861524854428630E+07,
2460490.500000000, A.D. 2024-Jun-29 00:00:00.0000, -2.196101698028424E+08, -2.375657040158911E+08, -4.916512571729235E+07,
2460497.500000000, A.D. 2024-Jul-06 00:00:00.0000, -2.093553345945420E+08, -2.456805616722721E+08, -4.964690064247467E+07,
2460504.500000000, A.D. 2024-Jul-13 00:00:00.0000, -1.988087899543867E+08, -2.534530943578952E+08, -5.005949014531763E+07,
2460511.500000000, A.D. 2024-Jul-20 00:00:00.0000, -1.879837284901668E+08, -2.608705554258032E+08, -5.040194109261514E+07,
2460518.500000000, A.D. 2024-Jul-27 00:00:00.0000, -1.768940555352502E+08, -2.679208042713948E+08, -5.067343604222372E+07,
2460525.500000000, A.D. 2024-Aug-03 00:00:00.0000, -1.655543527865930E+08, -2.745923578372644E+08, -5.087329823626879E+07,
2460532.500000000, A.D. 2024-Aug-10 00:00:00.0000, -1.539798373160572E+08, -2.808744395187048E+08, -5.100099589017093E+07,
2460539.500000000, A.D. 2024-Aug-17 00:00:00.0000, -1.421863161645035E+08, -2.867570249439644E+08, -5.105614572541219E+07,
2460546.500000000, A.D. 2024-Aug-24 00:00:00.0000, -1.301901368142231E+08, -2.922308841758930E+08, -5.103851570448694E+07,
2460553.500000000, A.D. 2024-Aug-31 00:00:00.0000, -1.180081338081272E+08, -2.972876199577177E+08, -5.094802694693437E+07,
2460560.500000000, A.D. 2024-Sep-07 00:00:00.0000, -1.056575715891533E+08, -3.019197014842829E+08, -5.078475482325314E+07,
2460567.500000000, A.D. 2024-Sep-14 00:00:00.0000, -9.315608396291435E+07, -3.061204923642944E+08, -5.054892913753383E+07,
2460574.500000000, A.D. 2024-Sep-21 00:00:00.0000, -8.052161274173979E+07, -3.098842720795476E+08, -5.024093317347650E+07,
2460581.500000000, A.D. 2024-Sep-28 00:00:00.0000, -6.777234661604454E+07, -3.132062539486600E+08, -4.986130182696956E+07,
2460588.500000000, A.D. 2024-Oct-05 00:00:00.0000, -5.492665715935718E+07, -3.160825994430106E+08, -4.941071917653945E+07,
2460595.500000000, A.D. 2024-Oct-12 00:00:00.0000, -4.200303291033904E+07, -3.185104257987282E+08, -4.889001524190436E+07,
2460602.500000000, A.D. 2024-Oct-19 00:00:00.0000, -2.902001386285295E+07, -3.204878071976488E+08, -4.830016183251359E+07,
2460609.500000000, A.D. 2024-Oct-26 00:00:00.0000, -1.599612697001177E+07, -3.220137703997064E+08, -4.764226760202032E+07,
2460616.500000000, A.D. 2024-Nov-02 00:00:00.0000, -2.949822965883743E+06, -3.230882851265136E+08, -4.691757240681940E+07,
2460623.500000000, A.D. 2024-Nov-09 00:00:00.0000, 1.010058505626115E+07, -3.237122493859107E+08, -4.612744104317859E+07,
2460630.500000000, A.D. 2024-Nov-16 00:00:00.0000, 2.313698083917657E+07, -3.238874700017354E+08, -4.527335643665764E+07,
2460637.500000000, A.D. 2024-Nov-23 00:00:00.0000, 3.614150152872612E+07, -3.236166387154832E+08, -4.435691236771975E+07,
2460644.500000000, A.D. 2024-Nov-30 00:00:00.0000, 4.909659142302211E+07, -3.229033042654036E+08, -4.337980583478400E+07,
2460651.500000000, A.D. 2024-Dec-07 00:00:00.0000, 6.198505297898484E+07, -3.217518404216838E+08, -4.234382913893376E+07,
2460658.500000000, A.D. 2024-Dec-14 00:00:00.0000, 7.479009410097149E+07, -3.201674091800441E+08, -4.125086160730399E+07,
2460665.500000000, A.D. 2024-Dec-21 00:00:00.0000, 8.749536916524227E+07, -3.181559207980562E+08, -4.010286092284076E+07,
2460672.500000000, A.D. 2024-Dec-28 00:00:00.0000, 1.000850155858224E+08, -3.157239940952878E+08, -3.890185456077383E+07,
2460679.500000000, A.D. 2025-Jan-04 00:00:00.0000, 1.125436884113870E+08, -3.128789151018816E+08, -3.764993145006606E+07,
2460686.500000000, A.D. 2025-Jan-11 00:00:00.0000, 1.248565910789204E+08, -3.096285928541663E+08, -3.634923362698044E+07,
2460693.500000000, A.D. 2025-Jan-18 00:00:00.0000, 1.370095014060023E+08, -3.059815137017019E+08, -3.500194793596905E+07,
2460700.500000000, A.D. 2025-Jan-25 00:00:00.0000, 1.489887931128182E+08, -3.019466950275667E+08, -3.361029789725621E+07,
2460707.500000000, A.D. 2025-Feb-01 00:00:00.0000, 1.607814531549801E+08, -2.975336388166584E+08, -3.217653581292073E+07,
2460714.500000000, A.D. 2025-Feb-08 00:00:00.0000, 1.723750950553700E+08, -2.927522854295969E+08, -3.070293516057822E+07,
$$EOE